start=new Date('2022-07-01T00:00:00.000Z').valueOf();
sats=[{"ELEMENT_SET_NO":"999","EPOCH":"2022-06-30T20:51:14.246496","INCLINATION":"53.0554","PERIOD":"95.592","OBJECT_ID":"2021-012G","APOAPSIS":"548.434","DECAY_DATE":null,"TLE_LINE1":"1 47626U 21012G   22181.86891489  .00000067  00000-0  23372-4 0  9992","MEAN_ELEMENT_THEORY":"SGP4","BSTAR":"0.00002337200000","COUNTRY_CODE":"US","PERIAPSIS":"546.020","GP_ID":"207176533","EPHEMERIS_TYPE":"0","OBJECT_NAME":"STARLINK-1761","TIME_SYSTEM":"UTC","MEAN_MOTION_DOT":"0.00000067","ECCENTRICITY":"0.00017430","CENTER_NAME":"EARTH","MEAN_ANOMALY":"295.9402","REF_FRAME":"TEME","FILE":"3505946","REV_AT_EPOCH":"7683","ARG_OF_PERICENTER":"64.1766","RA_OF_ASC_NODE":"2.2350","TLE_LINE2":"2 47626  53.0554   2.2350 0001743  64.1766 295.9402 15.06395740 76831","MEAN_MOTION":"15.06395740","CLASSIFICATION_TYPE":"U","LAUNCH_DATE":"2021-02-16","MEAN_MOTION_DDOT":"0.0000000000000","RCS_SIZE":"LARGE","SITE":"AFETR","NORAD_CAT_ID":"47626","OBJECT_TYPE":"PAYLOAD","SEMIMAJOR_AXIS":"6925.362"},{"SEMIMAJOR_AXIS":"6925.374","OBJECT_TYPE":"PAYLOAD","NORAD_CAT_ID":"47627","RCS_SIZE":"LARGE","SITE":"AFETR","MEAN_MOTION_DDOT":"0.0000000000000","CLASSIFICATION_TYPE":"U","LAUNCH_DATE":"2021-02-16","TLE_LINE2":"2 47627  53.0547 268.3532 0001502  54.7178 305.3951 15.06391569 78108","MEAN_MOTION":"15.06391569","RA_OF_ASC_NODE":"268.3532","ARG_OF_PERICENTER":"54.7178","REV_AT_EPOCH":"7810","FILE":"3505946","REF_FRAME":"TEME","MEAN_ANOMALY":"305.3951","CENTER_NAME":"EARTH","ECCENTRICITY":"0.00015020","MEAN_MOTION_DOT":"0.00001757","TIME_SYSTEM":"UTC","EPHEMERIS_TYPE":"0","OBJECT_NAME":"STARLINK-1972","GP_ID":"207177281","PERIAPSIS":"546.199","COUNTRY_CODE":"US","BSTAR":"0.00013684000000","MEAN_ELEMENT_THEORY":"SGP4","TLE_LINE1":"1 47627U 21012H   22181.61412667  .00001757  00000-0  13684-3 0  9994","DECAY_DATE":null,"OBJECT_ID":"2021-012H","APOAPSIS":"548.280","PERIOD":"95.593","INCLINATION":"53.0547","EPOCH":"2022-06-30T14:44:20.544288","ELEMENT_SET_NO":"999"},{"ECCENTRICITY":"0.00015320","REF_FRAME":"TEME","FILE":"3505946","CENTER_NAME":"EARTH","MEAN_ANOMALY":"284.0212","REV_AT_EPOCH":"7682","ARG_OF_PERICENTER":"76.0948","CLASSIFICATION_TYPE":"U","LAUNCH_DATE":"2021-02-16","RA_OF_ASC_NODE":"2.6487","TLE_LINE2":"2 47628  53.0559   2.6487 0001532  76.0948 284.0212 15.06399729 76821","MEAN_MOTION":"15.06399729","MEAN_MOTION_DDOT":"0.0000000000000","NORAD_CAT_ID":"47628","SITE":"AFETR","RCS_SIZE":"LARGE","SEMIMAJOR_AXIS":"6925.349","OBJECT_TYPE":"PAYLOAD","ELEMENT_SET_NO":"999","INCLINATION":"53.0559","EPOCH":"2022-06-30T18:31:52.017312","DECAY_DATE":null,"TLE_LINE1":"1 47628U 21012J   22181.77212983  .00001976  00000-0  15150-3 0  9994","PERIOD":"95.592","OBJECT_ID":"2021-012J","APOAPSIS":"548.275","COUNTRY_CODE":"US","MEAN_ELEMENT_THEORY":"SGP4","BSTAR":"0.00015150000000","GP_ID":"207176032","TIME_SYSTEM":"UTC","EPHEMERIS_TYPE":"0","OBJECT_NAME":"STARLINK-1973","PERIAPSIS":"546.153","MEAN_MOTION_DOT":"0.00001976"},{"ELEMENT_SET_NO":"999","EPOCH":"2022-06-30T13:20:04.405056","INCLINATION":"53.0553","OBJECT_ID":"2021-012K","APOAPSIS":"548.157","PERIOD":"95.592","TLE_LINE1":"1 47629U 21012K   22181.55560654  .00001036  00000-0  88473-4 0  9998","DECAY_DATE":null,"BSTAR":"0.00008847300000","MEAN_ELEMENT_THEORY":"SGP4","COUNTRY_CODE":"US","PERIAPSIS":"546.290","EPHEMERIS_TYPE":"0","TIME_SYSTEM":"UTC","OBJECT_NAME":"STARLINK-1974","GP_ID":"207148502","MEAN_MOTION_DOT":"0.00001036","ECCENTRICITY":"0.00013480","MEAN_ANOMALY":"291.9444","CENTER_NAME":"EARTH","FILE":"3505769","REF_FRAME":"TEME","ARG_OF_PERICENTER":"68.1688","REV_AT_EPOCH":"7845","MEAN_MOTION":"15.06396723","TLE_LINE2":"2 47629  53.0553 243.6342 0001348  68.1688 291.9444 15.06396723 78457","RA_OF_ASC_NODE":"243.6342","CLASSIFICATION_TYPE":"U","LAUNCH_DATE":"2021-02-16","MEAN_MOTION_DDOT":"0.0000000000000","SITE":"AFETR","RCS_SIZE":"LARGE","NORAD_CAT_ID":"47629","OBJECT_TYPE":"PAYLOAD","SEMIMAJOR_AXIS":"6925.359"},{"ECCENTRICITY":"0.00016810","CENTER_NAME":"EARTH","MEAN_ANOMALY":"295.3184","FILE":"3505946","REF_FRAME":"TEME","ARG_OF_PERICENTER":"64.7979","REV_AT_EPOCH":"7709","TLE_LINE2":"2 47630  53.0566 342.4188 0001681  64.7979 295.3184 15.06395689 77092","MEAN_MOTION":"15.06395689","RA_OF_ASC_NODE":"342.4188","CLASSIFICATION_TYPE":"U","LAUNCH_DATE":"2021-02-16","MEAN_MOTION_DDOT":"0.0000000000000","RCS_SIZE":"LARGE","SITE":"AFETR","NORAD_CAT_ID":"47630","OBJECT_TYPE":"PAYLOAD","SEMIMAJOR_AXIS":"6925.362","ELEMENT_SET_NO":"999","EPOCH":"2022-06-30T20:16:45.431328","INCLINATION":"53.0566","OBJECT_ID":"2021-012L","APOAPSIS":"548.391","PERIOD":"95.592","TLE_LINE1":"1 47630U 21012L   22181.84497027  .00000521  00000-0  53861-4 0  9996","DECAY_DATE":null,"BSTAR":"0.00005386100000","MEAN_ELEMENT_THEORY":"SGP4","COUNTRY_CODE":"US","PERIAPSIS":"546.063","EPHEMERIS_TYPE":"0","OBJECT_NAME":"STARLINK-1983","TIME_SYSTEM":"UTC","GP_ID":"207177033","MEAN_MOTION_DOT":"0.00000521"},{"OBJECT_ID":"2021-012N","APOAPSIS":"548.133","PERIOD":"95.592","TLE_LINE1":"1 47632U 21012N   22181.63898247  .00001613  00000-0  12713-3 0  9997","DECAY_DATE":null,"ELEMENT_SET_NO":"999","EPOCH":"2022-06-30T15:20:08.085408","INCLINATION":"53.0535","MEAN_MOTION_DOT":"0.00001613","BSTAR":"0.00012713000000","MEAN_ELEMENT_THEORY":"SGP4","COUNTRY_CODE":"US","PERIAPSIS":"546.308","OBJECT_NAME":"STARLINK-1992","EPHEMERIS_TYPE":"0","TIME_SYSTEM":"UTC","GP_ID":"207176782","ARG_OF_PERICENTER":"62.3011","REV_AT_EPOCH":"7811","TLE_LINE2":"2 47632  53.0535 268.2653 0001318  62.3011 297.8111 15.06397667 78119","MEAN_MOTION":"15.06397667","RA_OF_ASC_NODE":"268.2653","CLASSIFICATION_TYPE":"U","LAUNCH_DATE":"2021-02-16","ECCENTRICITY":"0.00013180","CENTER_NAME":"EARTH","MEAN_ANOMALY":"297.8111","FILE":"3505946","REF_FRAME":"TEME","RCS_SIZE":"LARGE","SITE":"AFETR","NORAD_CAT_ID":"47632","OBJECT_TYPE":"PAYLOAD","SEMIMAJOR_AXIS":"6925.356","MEAN_MOTION_DDOT":"0.0000000000000"},{"MEAN_ANOMALY":"294.7130","CENTER_NAME":"EARTH","FILE":"3505946","REF_FRAME":"TEME","ECCENTRICITY":"0.00014250","TLE_LINE2":"2 47633  53.0562   2.5986 0001425  65.4008 294.7130 15.06393099 76847","MEAN_MOTION":"15.06393099","RA_OF_ASC_NODE":"2.5986","CLASSIFICATION_TYPE":"U","LAUNCH_DATE":"2021-02-16","ARG_OF_PERICENTER":"65.4008","REV_AT_EPOCH":"7684","MEAN_MOTION_DDOT":"0.0000000000000","OBJECT_TYPE":"PAYLOAD","SEMIMAJOR_AXIS":"6925.370","RCS_SIZE":"LARGE","SITE":"AFETR","NORAD_CAT_ID":"47633","EPOCH":"2022-06-30T18:58:24.630240","INCLINATION":"53.0562","ELEMENT_SET_NO":"999","APOAPSIS":"548.222","OBJECT_ID":"2021-012P","PERIOD":"95.593","TLE_LINE1":"1 47633U 21012P   22181.79056285  .00000028  00000-0  20775-4 0  9990","DECAY_DATE":null,"PERIAPSIS":"546.248","EPHEMERIS_TYPE":"0","OBJECT_NAME":"STARLINK-2009","TIME_SYSTEM":"UTC","GP_ID":"207175533","BSTAR":"0.00002077500000","MEAN_ELEMENT_THEORY":"SGP4","COUNTRY_CODE":"US","MEAN_MOTION_DOT":"0.00000028"},{"MEAN_MOTION_DOT":"0.00001561","TIME_SYSTEM":"UTC","EPHEMERIS_TYPE":"0","OBJECT_NAME":"STARLINK-2010","GP_ID":"207175783","PERIAPSIS":"546.272","COUNTRY_CODE":"US","BSTAR":"0.00012367000000","MEAN_ELEMENT_THEORY":"SGP4","TLE_LINE1":"1 47634U 21012Q   22181.76570499  .00001561  00000-0  12367-3 0  9996","DECAY_DATE":null,"OBJECT_ID":"2021-012Q","APOAPSIS":"548.178","PERIOD":"95.592","INCLINATION":"53.0562","EPOCH":"2022-06-30T18:22:36.911136","ELEMENT_SET_NO":"999","SEMIMAJOR_AXIS":"6925.360","OBJECT_TYPE":"PAYLOAD","NORAD_CAT_ID":"47634","SITE":"AFETR","RCS_SIZE":"LARGE","MEAN_MOTION_DDOT":"0.0000000000000","LAUNCH_DATE":"2021-02-16","CLASSIFICATION_TYPE":"U","MEAN_MOTION":"15.06396326","TLE_LINE2":"2 47634  53.0562   2.6850 0001376  77.6415 282.4728 15.06396326 76811","RA_OF_ASC_NODE":"2.6850","ARG_OF_PERICENTER":"77.6415","REV_AT_EPOCH":"7681","FILE":"3505946","REF_FRAME":"TEME","MEAN_ANOMALY":"282.4728","CENTER_NAME":"EARTH","ECCENTRICITY":"0.00013760"},{"NORAD_CAT_ID":"47635","RCS_SIZE":"LARGE","SITE":"AFETR","SEMIMAJOR_AXIS":"6925.394","OBJECT_TYPE":"PAYLOAD","MEAN_MOTION_DDOT":"0.0000000000000","REV_AT_EPOCH":"7812","ARG_OF_PERICENTER":"75.5268","CLASSIFICATION_TYPE":"U","LAUNCH_DATE":"2021-02-16","RA_OF_ASC_NODE":"268.4423","MEAN_MOTION":"15.06385193","TLE_LINE2":"2 47635  53.0616 268.4423 0001455  75.5268 284.5882 15.06385193 78121","ECCENTRICITY":"0.00014550","REF_FRAME":"TEME","FILE":"3505946","CENTER_NAME":"EARTH","MEAN_ANOMALY":"284.5882","MEAN_MOTION_DOT":"0.00000706","COUNTRY_CODE":"US","MEAN_ELEMENT_THEORY":"SGP4","BSTAR":"0.00006628000000","GP_ID":"207176534","EPHEMERIS_TYPE":"0","TIME_SYSTEM":"UTC","OBJECT_NAME":"STARLINK-2012","PERIAPSIS":"546.251","DECAY_DATE":null,"TLE_LINE1":"1 47635U 21012R   22181.59202386  .00000706  00000-0  66280-4 0  9999","PERIOD":"95.593","APOAPSIS":"548.267","OBJECT_ID":"2021-012R","ELEMENT_SET_NO":"999","INCLINATION":"53.0616","EPOCH":"2022-06-30T14:12:30.861504"},{"CENTER_NAME":"EARTH","MEAN_ANOMALY":"265.3018","FILE":"3505946","REF_FRAME":"TEME","ECCENTRICITY":"0.00011920","MEAN_MOTION":"15.06390890","TLE_LINE2":"2 47636  53.0562 342.1538 0001192  94.8108 265.3018 15.06390890 77110","RA_OF_ASC_NODE":"342.1538","CLASSIFICATION_TYPE":"U","LAUNCH_DATE":"2021-02-16","ARG_OF_PERICENTER":"94.8108","REV_AT_EPOCH":"7711","MEAN_MOTION_DDOT":"0.0000000000000","OBJECT_TYPE":"PAYLOAD","SEMIMAJOR_AXIS":"6925.376","RCS_SIZE":"LARGE","SITE":"AFETR","NORAD_CAT_ID":"47636","EPOCH":"2022-06-30T21:15:07.194816","INCLINATION":"53.0562","ELEMENT_SET_NO":"999","APOAPSIS":"548.067","OBJECT_ID":"2021-012S","PERIOD":"95.593","TLE_LINE1":"1 47636U 21012S   22181.88549994  .00000130  00000-0  27625-4 0  9992","DECAY_DATE":null,"PERIAPSIS":"546.416","TIME_SYSTEM":"UTC","EPHEMERIS_TYPE":"0","OBJECT_NAME":"STARLINK-2013","GP_ID":"207177282","BSTAR":"0.00002762500000","MEAN_ELEMENT_THEORY":"SGP4","COUNTRY_CODE":"US","MEAN_MOTION_DOT":"0.00000130"}];
